{
    "links": {
        "self": "http://www.neowsapp.com/rest/v1/neo/3675021?api_key=iIulBulltgU6a56xZRHN4H3l9WmuAYTsLGpBGhQ2"
    },
    "id": "3675021",
    "neo_reference_id": "3675021",
    "name": "(2014 OB112)",
    "designation": "2014 OB112",
    "nasa_jpl_url": "http://ssd.jpl.nasa.gov/sbdb.cgi?sstr=3675021",
    "absolute_magnitude_h": 22.5,
    "estimated_diameter": {
        "kilometers": {
            "estimated_diameter_min": 0.0840533402,
            "estimated_diameter_max": 0.1879489824
        },
        "meters": {
            "estimated_diameter_min": 84.0533402073,
            "estimated_diameter_max": 187.9489824394
        },
        "miles": {
            "estimated_diameter_min": 0.0522283081,
            "estimated_diameter_max": 0.1167860472
        },
        "feet": {
            "estimated_diameter_min": 275.7655606856,
            "estimated_diameter_max": 616.6305395464
        }
    },
    "is_potentially_hazardous_asteroid": false,
    "close_approach_data": [
        {
            "close_approach_date": "2014-09-19",
            "close_approach_date_full": "2014-Sep-19 06:24",
            "epoch_date_close_approach": 1411107840000,
            "relative_velocity": {
                "kilometers_per_second": "9.7340027379",
                "kilometers_per_hour": "35042.4098563363",
                "miles_per_hour": "21773.9907243441"
            },
            "miss_distance": {
                "astronomical": "0.1700721281",
                "lunar": "66.1580578309",
                "kilometers": "25442428.110127147",
                "miles": "15809191.7456707486"
            },
            "orbiting_body": "Earth"
        }
    ],
    "orbital_data": {
        "orbit_id": "3",
        "orbit_determination_date": "2017-04-06 08:39:30",
        "first_observation_date": "2014-07-26",
        "last_observation_date": "2014-07-29",
        "data_arc_in_days": 3,
        "observations_used": 12,
        "orbit_uncertainty": "9",
        "minimum_orbit_intersection": ".0302624",
        "jupiter_tisserand_invariant": "3.919",
        "epoch_osculation": "2456865.5",
        "eccentricity": ".5137954589969486",
        "semi_major_axis": "1.778008613650862",
        "inclination": "8.192969574142092",
        "ascending_node_longitude": "124.209246854003",
        "orbital_period": "865.962763629952",
        "perihelion_distance": ".8644758618995892",
        "perihelion_argument": "248.6040771059251",
        "aphelion_distance": "2.691541365402135",
        "perihelion_time": "2456933.493880605056",
        "mean_anomaly": "331.7334300666533",
        "mean_motion": ".4157222632656261",
        "equinox": "J2000",
        "orbit_class": {
            "orbit_class_type": "APO",
            "orbit_class_description": "Near-Earth asteroid orbits which cross the Earth’s orbit similar to that of 1862 Apollo",
            "orbit_class_range": "a (semi-major axis) > 1.0 AU; q (perihelion) < 1.017 AU"
        }
    },
    "is_sentry_object": false
}